[{"OBJECT_NAME":"STARLINK-31113","OBJECT_ID":"2023-211B","EPOCH":"2026-03-09T01:43:39.497088","MEAN_MOTION":15.27578061,"ECCENTRICITY":0.00010083,"INCLINATION":43.003,"RA_OF_ASC_NODE":88.4648,"ARG_OF_PERICENTER":277.8231,"MEAN_ANOMALY":82.2506,"EPHEMERIS_TYPE":0,"CLASSIFICATION_TYPE":"U","NORAD_CAT_ID":58668,"ELEMENT_SET_NO":999,"REV_AT_EPOCH":12237,"BSTAR":-4.7464801e-5,"MEAN_MOTION_DOT":-1.568e-5,"MEAN_MOTION_DDOT":0},{"OBJECT_NAME":"COSMOS 1975","OBJECT_ID":"1988-093A","EPOCH":"2026-03-09T14:15:08.474112","MEAN_MOTION":15.28069249,"ECCENTRICITY":0.0012117,"INCLINATION":82.5181,"RA_OF_ASC_NODE":117.7814,"ARG_OF_PERICENTER":163.8427,"MEAN_ANOMALY":196.3201,"EPHEMERIS_TYPE":0,"CLASSIFICATION_TYPE":"U","NORAD_CAT_ID":19573,"ELEMENT_SET_NO":999,"REV_AT_EPOCH":1939,"BSTAR":0.0002787,"MEAN_MOTION_DOT":7.676e-5,"MEAN_MOTION_DDOT":0}]
